#aV2020  1 17  0  0  0.00000000     288 DD+AD WGS84 FIT  NGA
## 2088 432000.00000000   300.00000000 58865 0.0000000000000
+   32     1  2  3  4  5  6  7  8  9 10 11 12 13 14 15 16 17
+         18 19 20 21 22 23 24 25 26 27 28 29 30 31 32  0  0
+          0  0  0  0  0  0  0  0  0  0  0  0  0  0  0  0  0
+          0  0  0  0  0  0  0  0  0  0  0  0  0  0  0  0  0
+          0  0  0  0  0  0  0  0  0  0  0  0  0  0  0  0  0
++         2  2  2  2  2  2  2  2  2  2  2  2  2  2  2  2  2
++         2  2  2  2  2  2  2  2  2  2  2  2  2  2  2  0  0
++         0  0  0  0  0  0  0  0  0  0  0  0  0  0  0  0  0
++         0  0  0  0  0  0  0  0  0  0  0  0  0  0  0  0  0
++         0  0  0  0  0  0  0  0  0  0  0  0  0  0  0  0  0
%c cc cc ccc ccc cccc cccc cccc cccc ccccc ccccc ccccc ccccc
%c cc cc ccc ccc cccc cccc cccc cccc ccccc ccccc ccccc ccccc
%f  0.0000000  0.000000000  0.00000000000  0.000000000000000
%f  0.0000000  0.000000000  0.00000000000  0.000000000000000
%i    0    0    0    0      0      0      0      0         0
%i    0    0    0    0      0      0      0      0         0
/*      NGA, ST. LOUIS,MO.                                  
/*   EPHEMERIS COMPUTED FROM 2 DAYS OF DATA                 
/*   EPOCHA v5 SMOOTHER                                     
/*   G1762 IERS2010 SATAF SATAPC                            
*  2020  1 17 12  5  0.00000000
P  1 -14134.725010  22186.297426  -2193.783941   -265.263955                    
V  1  -3530.565486    611.869852  32200.403195     -0.121590                    
P  2  18554.307710  -7965.581673 -16566.280347   -387.551364                    
V  2  -9869.471407  20120.063114 -20067.033531     -0.071419                    
P  3  -9899.630679  13460.631023 -20682.404367    -74.204884                    
V  3 -25941.423903  -3345.310900  10357.357245     -0.078498                    
P  4  -3748.309294  20584.514421 -16343.621853    -35.616789                    
V  4  -9822.399990 -18404.975567 -20939.512333     -0.054431                    
P  5  25715.667761  -2857.592197   6297.184505     -6.218021                    
V  5   7941.771176   3345.880506 -30069.300203     -0.005365                    
P  6  14094.255581   5475.315860 -21786.125234   -184.523323                    
V  6 -15757.626295  22824.861959  -4414.111193     -0.101743                    
P  7   -667.131319  20806.224029  16498.498120   -194.037246                    
V  7 -13917.064051  15387.290758 -20792.533770     -0.083009                    
P  8 -10693.921391  11588.746317  21368.028087    -20.521387                    
V  8 -12269.500298 -24138.711743   7193.508212     -0.013478                    
P  9   5112.706345  24663.333154  -8465.588568   -134.468472                    
V  9  -7174.452953  -8415.799585 -29061.608112     -0.087591                    
P 10 -19451.974649 -11598.408591  14134.788512   -212.587896                    
V 10  17822.300973   -266.640411  24207.086447     -0.135606                    
P 11 -10332.151623  22904.275946   8542.082055   -387.637001                    
V 11  -2002.731796 -11979.568360  27786.161103      0.108607                    
P 12  14279.904786 -11018.371852 -19660.535763    161.390988                    
V 12  23995.184417   4992.156446  14965.196289     -0.041054                    
P 13  14862.763592  -2648.197531  21731.855729    -19.352727                    
V 13   8215.454569  26628.149023  -2283.470415      0.025969                    
P 14 -16730.049810 -12011.216779 -16543.720141    -38.241175                    
V 14  -5709.462126 -20872.966630  20343.574534      0.023254                    
P 15   9815.634300 -13387.957657  20359.898229   -257.997966                    
V 15  14603.678443  22444.548391   7987.381453      0.026307                    
P 16 -26063.729395   -686.218157   5997.757856   -114.516326                    
V 16  -7320.948295  -3144.414901 -30691.550804     -0.040267                    
P 17  14168.337907  20676.647799  -8444.960461    200.147663                    
V 17   2296.453389  11217.597857  29759.179172      0.066119                    
P 18 -17026.967491  19320.274557   5794.940997    113.986485                    
V 18   1756.916290  -8386.633760  30571.479685      0.024351                    
P 19  16046.036605  14448.094662 -15753.154166   -211.296308                    
V 19   4925.109781  18850.596016  22738.122697      0.051763                    
P 20  -9574.299715 -14512.455483  20036.135577    527.805444                    
V 20  25640.303290  -2090.727461  10483.877567      0.000474                    
P 21  -2736.050453 -20093.086229  18064.989207    -54.459214                    
V 21  12423.624952 -17388.446634 -18049.050386      0.055438                    
P 22 -17736.989593  11547.092919 -15760.647260   -782.205981                    
V 22 -20517.312670  -2915.255596  20777.136555     -0.012533                    
P 23  -1937.711196  21245.725650 -15224.671780   -142.526279                    
V 23 -11269.597281 -16941.740980 -22087.015244      0.024739                    
P 24  14191.200489 -22208.033709    335.450622     -7.699575                    
V 24   2955.916101   2620.721525  31449.034452     -0.005755                    
P 25   -342.572267 -15243.373240 -21982.043199    -15.828730                    
V 25  27224.353597   2551.349893  -1950.484741      0.008304                    
P 26 -26057.027034  -4329.083160  -3771.185265    129.154848                    
V 26   4911.194726  -2667.354770 -30863.418824      0.079665                    
P 27 -16007.596320   -750.922664  21124.272709   -183.770609                    
V 27 -10857.349981 -24701.327028  -8740.456610     -0.113074                    
P 28  19116.072201  12898.237041  13649.626899    744.778377                    
V 28 -16398.803754  -1353.279751  25493.406446     -0.021074                    
P 29  -3188.646587 -24846.973794  -8827.707665     -9.722592                    
V 29   5705.800306   9752.542992 -29630.628861     -0.095607                    
P 30   8981.792496  13547.765428  21006.454877   -131.317608                    
V 30 -16881.191855  20728.406889  -6355.093606     -0.088328                    
P 31 -16153.347324  -3045.717729 -20982.437461    -17.117311                    
V 31  15457.042632 -21508.870256  -8335.181733     -0.024974                    
P 32 -16032.606352 -19222.551723  -9022.608204    187.363297                    
V 32  -2530.611233 -11525.411555  28714.623823      0.105567                    
EOF
